STARLINK-32565          
1 62182U 24225V   26068.58117266  .00003461  00000+0  29773-3 0  9996
2 62182  70.0027 164.5410 0002876 256.4518 103.6321 14.98325841 69862
TOMORROW-S7             
1 63631U 25081B   26068.64931870  .00002135  00000+0  19093-3 0  9990
2 63631  45.3909 132.5570 0000463 121.9907 238.1016 14.99242141 48231
