[{"OBJECT_NAME":"STARLINK-32565","OBJECT_ID":"2024-225V","EPOCH":"2026-03-09T13:56:53.317824","MEAN_MOTION":14.98325841,"ECCENTRICITY":0.0002876,"INCLINATION":70.0027,"RA_OF_ASC_NODE":164.541,"ARG_OF_PERICENTER":256.4518,"MEAN_ANOMALY":103.6321,"EPHEMERIS_TYPE":0,"CLASSIFICATION_TYPE":"U","NORAD_CAT_ID":62182,"ELEMENT_SET_NO":999,"REV_AT_EPOCH":6986,"BSTAR":0.00029773,"MEAN_MOTION_DOT":3.461e-5,"MEAN_MOTION_DDOT":0},{"OBJECT_NAME":"TOMORROW-S7","OBJECT_ID":"2025-081B","EPOCH":"2026-03-09T15:35:01.135680","MEAN_MOTION":14.99242141,"ECCENTRICITY":4.629e-5,"INCLINATION":45.3909,"RA_OF_ASC_NODE":132.557,"ARG_OF_PERICENTER":121.9907,"MEAN_ANOMALY":238.1016,"EPHEMERIS_TYPE":0,"CLASSIFICATION_TYPE":"U","NORAD_CAT_ID":63631,"ELEMENT_SET_NO":999,"REV_AT_EPOCH":4823,"BSTAR":0.00019092565,"MEAN_MOTION_DOT":2.135e-5,"MEAN_MOTION_DDOT":0}]
